STARLINK-2469           
1 48128U 21027AN  26068.38685403  .00022048  00000+0  10578-2 0  9992
2 48128  53.1065 102.3811 0001315  92.2024 267.9122 15.18828320273357
FLOCK 4H-36             
1 66739U 25276CB  26068.71582785  .00007279  00000+0  34899-3 0  9998
2 66739  97.4313 144.1032 0001458 333.1863  26.9296 15.19196798 15321
